{"type": "FeatureCollection", "features": [{"type": "Feature", "properties": {"norad_id": 25590, "name": "COSMOS 2361", "group": "musson", "lat": 7.738829826771562, "lon": 163.3090608897212, "alt_km": 991.4656312510342, "timestamp": "2025-12-12T11:38:31.681720+00:00", "meta": {"OBJECT_NAME": "COSMOS 2361", "OBJECT_ID": "1998-076A", "EPOCH": "2025-12-12T02:22:20.301312", "MEAN_MOTION": 13.7321741, "ECCENTRICITY": 0.0030052, "INCLINATION": 82.9339, "RA_OF_ASC_NODE": 344.5604, "ARG_OF_PERICENTER": 267.4467, "MEAN_ANOMALY": 156.6361, "EPHEMERIS_TYPE": 0, "CLASSIFICATION_TYPE": "U", "NORAD_CAT_ID": 25590, "ELEMENT_SET_NO": 999, "REV_AT_EPOCH": 35102, "BSTAR": 9.0831e-05, "MEAN_MOTION_DOT": 9.9e-07, "MEAN_MOTION_DDOT": 0}, "tle": {"line1": "1 25590U 98076A   25346.09884608  .00000099  00000+0  90831-4 0  9996", "line2": "2 25590  82.9339 344.5604 0030052 267.4467 156.6361 13.73217410351027"}}, "geometry": {"type": "Point", "coordinates": [163.3090608897212, 7.738829826771562]}}, {"type": "Feature", "properties": {"norad_id": 26818, "name": "COSMOS 2378", "group": "musson", "lat": -63.60110024338274, "lon": -165.60205509889246, "alt_km": 973.3403076918721, "timestamp": "2025-12-12T11:38:31.681741+00:00", "meta": {"OBJECT_NAME": "COSMOS 2378", "OBJECT_ID": "2001-023A", "EPOCH": "2025-12-12T03:47:54.351744", "MEAN_MOTION": 13.74141921, "ECCENTRICITY": 0.0032364, "INCLINATION": 82.9272, "RA_OF_ASC_NODE": 0.1561, "ARG_OF_PERICENTER": 206.5537, "MEAN_ANOMALY": 221.8176, "EPHEMERIS_TYPE": 0, "CLASSIFICATION_TYPE": "U", "NORAD_CAT_ID": 26818, "ELEMENT_SET_NO": 999, "REV_AT_EPOCH": 22915, "BSTAR": 6.0593e-05, "MEAN_MOTION_DOT": 7.2e-07, "MEAN_MOTION_DDOT": 0}, "tle": {"line1": "1 26818U 01023A   25346.15826796  .00000072  00000+0  60593-4 0  9990", "line2": "2 26818  82.9272   0.1561 0032364 206.5537 221.8176 13.74141921229155"}}, "geometry": {"type": "Point", "coordinates": [-165.60205509889246, -63.60110024338274]}}, {"type": "Feature", "properties": {"norad_id": 27436, "name": "COSMOS 2389", "group": "musson", "lat": 82.9302818348175, "lon": 41.00662598139643, "alt_km": 942.9706844128505, "timestamp": "2025-12-12T11:38:31.681755+00:00", "meta": {"OBJECT_NAME": "COSMOS 2389", "OBJECT_ID": "2002-026A", "EPOCH": "2025-12-12T04:16:24.105792", "MEAN_MOTION": 13.75154525, "ECCENTRICITY": 0.0047632, "INCLINATION": 82.9502, "RA_OF_ASC_NODE": 307.4004, "ARG_OF_PERICENTER": 62.266, "MEAN_ANOMALY": 308.8174, "EPHEMERIS_TYPE": 0, "CLASSIFICATION_TYPE": "U", "NORAD_CAT_ID": 27436, "ELEMENT_SET_NO": 999, "REV_AT_EPOCH": 18141, "BSTAR": 9.0513e-05, "MEAN_MOTION_DOT": 1.03e-06, "MEAN_MOTION_DDOT": 0}, "tle": {"line1": "1 27436U 02026A   25346.17805678  .00000103  00000+0  90513-4 0  9999", "line2": "2 27436  82.9502 307.4004 0047632  62.2660 308.8174 13.75154525181416"}}, "geometry": {"type": "Point", "coordinates": [41.00662598139643, 82.9302818348175]}}, {"type": "Feature", "properties": {"norad_id": 27818, "name": "COSMOS 2398", "group": "musson", "lat": 44.5602744626417, "lon": -80.11300688515865, "alt_km": 977.892315861568, "timestamp": "2025-12-12T11:38:31.681767+00:00", "meta": {"OBJECT_NAME": "COSMOS 2398", "OBJECT_ID": "2003-023A", "EPOCH": "2025-12-11T21:45:28.320192", "MEAN_MOTION": 13.72385648, "ECCENTRICITY": 0.0032549, "INCLINATION": 82.9485, "RA_OF_ASC_NODE": 273.3122, "ARG_OF_PERICENTER": 114.027, "MEAN_ANOMALY": 314.8069, "EPHEMERIS_TYPE": 0, "CLASSIFICATION_TYPE": "U", "NORAD_CAT_ID": 27818, "ELEMENT_SET_NO": 999, "REV_AT_EPOCH": 12805, "BSTAR": 8.8662e-05, "MEAN_MOTION_DOT": 9.7e-07, "MEAN_MOTION_DDOT": 0}, "tle": {"line1": "1 27818U 03023A   25345.90657778  .00000097  00000+0  88662-4 0  9991", "line2": "2 27818  82.9485 273.3122 0032549 114.0270 314.8069 13.72385648128056"}}, "geometry": {"type": "Point", "coordinates": [-80.11300688515865, 44.5602744626417]}}, {"type": "Feature", "properties": {"norad_id": 28380, "name": "COSMOS 2407", "group": "musson", "lat": -56.92161778644692, "lon": 44.015990023355485, "alt_km": 1013.735248635182, "timestamp": "2025-12-12T11:38:31.681778+00:00", "meta": {"OBJECT_NAME": "COSMOS 2407", "OBJECT_ID": "2004-028A", "EPOCH": "2025-12-12T04:04:25.861728", "MEAN_MOTION": 13.76313531, "ECCENTRICITY": 0.0040356, "INCLINATION": 82.9607, "RA_OF_ASC_NODE": 213.3147, "ARG_OF_PERICENTER": 56.3948, "MEAN_ANOMALY": 59.5835, "EPHEMERIS_TYPE": 0, "CLASSIFICATION_TYPE": "U", "NORAD_CAT_ID": 28380, "ELEMENT_SET_NO": 999, "REV_AT_EPOCH": 7415, "BSTAR": 6.1833e-05, "MEAN_MOTION_DOT": 7.6e-07, "MEAN_MOTION_DDOT": 0}, "tle": {"line1": "1 28380U 04028A   25346.16974377  .00000076  00000+0  61833-4 0  9996", "line2": "2 28380  82.9607 213.3147 0040356  56.3948  59.5835 13.76313531 74154"}}, "geometry": {"type": "Point", "coordinates": [44.015990023355485, -56.92161778644692]}}, {"type": "Feature", "properties": {"norad_id": 28521, "name": "COSMOS 2414", "group": "musson", "lat": 49.119644999275295, "lon": -3.3673093350648893, "alt_km": 902.102251379145, "timestamp": "2025-12-12T11:38:31.681790+00:00", "meta": {"OBJECT_NAME": "COSMOS 2414", "OBJECT_ID": "2005-002A", "EPOCH": "2025-12-12T00:38:10.153824", "MEAN_MOTION": 13.87902742, "ECCENTRICITY": 0.0040854, "INCLINATION": 82.9492, "RA_OF_ASC_NODE": 185.1994, "ARG_OF_PERICENTER": 141.6769, "MEAN_ANOMALY": 218.731, "EPHEMERIS_TYPE": 0, "CLASSIFICATION_TYPE": "U", "NORAD_CAT_ID": 28521, "ELEMENT_SET_NO": 999, "REV_AT_EPOCH": 5785, "BSTAR": 7.0527e-05, "MEAN_MOTION_DOT": 1e-06, "MEAN_MOTION_DDOT": 0}, "tle": {"line1": "1 28521U 05002A   25346.02650641  .00000100  00000+0  70527-4 0  9994", "line2": "2 28521  82.9492 185.1994 0040854 141.6769 218.7310 13.87902742 57856"}}, "geometry": {"type": "Point", "coordinates": [-3.3673093350648893, 49.119644999275295]}}, {"type": "Feature", "properties": {"norad_id": 32052, "name": "COSMOS 2429", "group": "musson", "lat": -80.97801693875947, "lon": -67.3975298862607, "alt_km": 1004.1216159525911, "timestamp": "2025-12-12T11:38:31.681801+00:00", "meta": {"OBJECT_NAME": "COSMOS 2429", "OBJECT_ID": "2007-038A", "EPOCH": "2025-12-12T01:34:25.363776", "MEAN_MOTION": 13.75149268, "ECCENTRICITY": 0.0039277, "INCLINATION": 82.9803, "RA_OF_ASC_NODE": 343.8058, "ARG_OF_PERICENTER": 39.7075, "MEAN_ANOMALY": 320.6945, "EPHEMERIS_TYPE": 0, "CLASSIFICATION_TYPE": "U", "NORAD_CAT_ID": 32052, "ELEMENT_SET_NO": 999, "REV_AT_EPOCH": 91593, "BSTAR": 7.9533e-05, "MEAN_MOTION_DOT": 9.2e-07, "MEAN_MOTION_DDOT": 0}, "tle": {"line1": "1 32052U 07038A   25346.06557134  .00000092  00000+0  79533-4 0  9992", "line2": "2 32052  82.9803 343.8058 0039277  39.7075 320.6945 13.75149268915936"}}, "geometry": {"type": "Point", "coordinates": [-67.3975298862607, -80.97801693875947]}}, {"type": "Feature", "properties": {"norad_id": 35635, "name": "COSMOS 2454", "group": "musson", "lat": 0.9168811139925064, "lon": -11.275405570861494, "alt_km": 935.4308238751437, "timestamp": "2025-12-12T11:38:31.681812+00:00", "meta": {"OBJECT_NAME": "COSMOS 2454", "OBJECT_ID": "2009-039A", "EPOCH": "2025-12-12T00:57:50.820192", "MEAN_MOTION": 13.89928507, "ECCENTRICITY": 0.0020456, "INCLINATION": 82.9553, "RA_OF_ASC_NODE": 169.1753, "ARG_OF_PERICENTER": 75.5946, "MEAN_ANOMALY": 38.1596, "EPHEMERIS_TYPE": 0, "CLASSIFICATION_TYPE": "U", "NORAD_CAT_ID": 35635, "ELEMENT_SET_NO": 999, "REV_AT_EPOCH": 83140, "BSTAR": 8.0955e-05, "MEAN_MOTION_DOT": 1.16e-06, "MEAN_MOTION_DDOT": 0}, "tle": {"line1": "1 35635U 09039A   25346.04017153  .00000116  00000+0  80955-4 0  9992", "line2": "2 35635  82.9553 169.1753 0020456  75.5946  38.1596 13.89928507831401"}}, "geometry": {"type": "Point", "coordinates": [-11.275405570861494, 0.9168811139925064]}}, {"type": "Feature", "properties": {"norad_id": 36519, "name": "COSMOS 2463", "group": "musson", "lat": -54.83539810983715, "lon": -143.00020964506317, "alt_km": 985.3331669046875, "timestamp": "2025-12-12T11:38:31.681822+00:00", "meta": {"OBJECT_NAME": "COSMOS 2463", "OBJECT_ID": "2010-017A", "EPOCH": "2025-12-12T03:45:20.761056", "MEAN_MOTION": 13.71649125, "ECCENTRICITY": 0.0034807, "INCLINATION": 82.9614, "RA_OF_ASC_NODE": 27.1413, "ARG_OF_PERICENTER": 289.7422, "MEAN_ANOMALY": 124.278, "EPHEMERIS_TYPE": 0, "CLASSIFICATION_TYPE": "U", "NORAD_CAT_ID": 36519, "ELEMENT_SET_NO": 999, "REV_AT_EPOCH": 78229, "BSTAR": 5.5219e-05, "MEAN_MOTION_DOT": 6.5e-07, "MEAN_MOTION_DDOT": 0}, "tle": {"line1": "1 36519U 10017A   25346.15649029  .00000065  00000+0  55219-4 0  9995", "line2": "2 36519  82.9614  27.1413 0034807 289.7422 124.2780 13.71649125782291"}}, "geometry": {"type": "Point", "coordinates": [-143.00020964506317, -54.83539810983715]}}]}